0 IPSTAR 1
1 28786U 05028A   13282.56406600 -.00000376  00000-0  10000-3 0  2982
2 28786 000.0038 270.8833 0002148 273.3689 156.6888 01.00270664 29939
0 IPSTAR 1
1 28786U 05028A   13283.07640208  .00000000  00000-0  10000-3 0  2997
2 28786 000.0188 112.0531 0002045 086.5631 327.2508 01.00265251 29946
0 IPSTAR 1
1 28786U 05028A   13283.59820544 -.00000380  00000-0  10000-3 0  2999
2 28786 000.0020 271.5529 0002144 275.0838 167.6094 01.00270293 29941
0 IPSTAR 1
1 28786U 05028A   13286.87315429 -.00000387  00000-0  10000-3 0  3004
2 28786 000.0205 211.6051 0002375 328.3012 276.5429 01.00269928 29982
0 IPSTAR 1
1 28786U 05028A   13289.84793336 -.00000385  00000-0  10000-3 0  3010
2 28786 000.0056 033.3686 0002506 166.7799 250.1590 01.00271174 30010
0 IPSTAR 1
1 28786U 05028A   13294.85440560 -.00000376  00000-0  10000-3 0  3026
2 28786 000.0163 225.3490 0002654 331.3264 260.9156 01.00271585 30064
